OBJECT_NAME,OBJECT_ID,EPOCH,MEAN_MOTION,ECCENTRICITY,INCLINATION,RA_OF_ASC_NODE,ARG_OF_PERICENTER,MEAN_ANOMALY,EPHEMERIS_TYPE,CLASSIFICATION_TYPE,NORAD_CAT_ID,ELEMENT_SET_NO,REV_AT_EPOCH,BSTAR,MEAN_MOTION_DOT,MEAN_MOTION_DDOT
GSAT0216 (GALILEO 20),2017-079B,2026-07-08T10:10:00.342912,1.70474488,.00048401,55.0694,220.9220,276.8691,83.1496,0,U,43056,999,5336,0,.85E-6,0
GSAT0217 (GALILEO 21),2017-079C,2026-07-07T11:18:36.053568,1.70474257,.00039099,55.0679,220.9459,293.3909,66.6394,0,U,43057,999,5333,0,.81E-6,0
GSAT0218 (GALILEO 22),2017-079D,2026-07-05T08:16:48.241920,1.70474403,.0006103,55.0681,221.0021,274.7664,85.2358,0,U,43058,999,5332,0,.75E-6,0
BEIDOU-3 M7 (C27),2018-003A,2026-07-08T07:00:28.304928,1.86228392,.00044807,54.3078,301.5795,98.0554,262.0167,0,U,43107,999,5774,0,-.66E-6,0
BEIDOU-3 M8 (C28),2018-003B,2026-07-07T03:54:03.836160,1.86231031,.00029794,54.3015,301.6004,257.8270,102.1630,0,U,43108,999,5773,0,-.63E-6,0
BEIDOU-3 M4 (C22),2018-018A,2026-07-07T01:38:57.124608,1.86231345,.00074283,56.6676,62.4940,26.7445,333.3571,0,U,43207,999,5711,0,-.42E-6,0
BEIDOU-3 M3 (C21),2018-018B,2026-07-06T14:21:28.890720,1.86231254,.00078802,56.6666,62.5134,344.5989,15.4415,0,U,43208,999,5710,0,-.41E-6,0
BEIDOU-3 M9 (C29),2018-029A,2026-07-08T10:14:58.765056,1.86228291,.00010953,54.1736,299.2068,182.3611,177.6623,0,U,43245,999,5629,0,-.63E-6,0
BEIDOU-3 M10 (C30),2018-029B,2026-07-08T08:40:17.648832,1.86229516,.00033385,54.1715,299.2350,36.6735,323.3733,0,U,43246,999,5627,0,-.63E-6,0
IRNSS-1I,2018-035A,2026-07-06T20:05:50.528832,1.00279237,.00180874,28.7973,73.8917,180.4002,27.0525,0,U,43286,999,3027,0,.79E-6,0
COSMOS 2527 (756),2018-053A,2026-07-08T04:50:08.367072,2.13102237,.00067148,65.5889,73.2070,232.0518,127.9479,0,U,43508,999,6272,0,-.22E-6,0
BEIDOU-2 IGSO-7 (C16),2018-057A,2026-07-01T21:23:21.693984,1.00246939,.01049468,55.1981,162.9292,237.8611,308.6338,0,U,43539,999,2927,0,-.33E-6,0
GSAT0221 (GALILEO 25),2018-060A,2026-07-06T10:08:01.392576,1.70476116,.00025735,57.1630,341.2618,291.0401,68.9323,0,U,43564,999,4949,0,-.71E-6,0
GSAT0222 (GALILEO 26),2018-060B,2026-07-08T09:38:24.797760,1.70475809,.00025894,57.1654,341.2120,236.8801,123.0952,0,U,43565,999,4957,0,-.73E-6,0
GSAT0219 (GALILEO 23),2018-060C,2026-07-08T14:56:27.319488,1.70476061,.00017832,57.1647,341.2076,304.8884,55.0946,0,U,43566,999,4955,0,-.74E-6,0
GSAT0220 (GALILEO 24),2018-060D,2026-07-08T20:14:41.410176,1.70475782,.00020908,57.1644,341.2024,294.4921,65.4855,0,U,43567,999,4954,0,-.75E-6,0
BEIDOU-3 M5 (C23),2018-062A,2026-07-08T01:09:35.565984,1.86228639,.00057261,54.0866,181.5951,292.2856,67.6621,0,U,43581,999,5402,0,.121E-5,0
BEIDOU-3 M6 (C24),2018-062B,2026-07-07T08:59:54.178368,1.86227975,.00050882,54.0860,181.6071,9.1977,350.8186,0,U,43582,999,5401,0,.119E-5,0
BEIDOU-3 M12 (C26),2018-067A,2026-07-07T07:31:14.584800,1.86227798,.00079078,54.1816,180.3578,30.2614,329.7892,0,U,43602,999,5349,0,.118E-5,0
BEIDOU-3 M11 (C25),2018-067B,2026-07-08T12:32:15.916416,1.86227291,.00046222,54.1790,180.2804,13.7358,346.2837,0,U,43603,999,5354,0,.12E-5,0
BEIDOU-3 M13 (C32),2018-072A,2026-07-07T22:33:50.580000,1.86231552,.00064759,56.6423,61.9754,331.9644,28.0627,0,U,43622,999,5304,0,-.45E-6,0
BEIDOU-3 M16 (C35),2018-078A,2026-07-07T10:10:07.711968,1.86232245,.00067519,54.0702,299.2766,40.2464,319.8292,0,U,43647,999,5253,0,-.62E-6,0
BEIDOU-3 M15 (C34),2018-078B,2026-07-06T11:29:52.466208,1.86232415,.00037704,54.0667,299.3099,58.5392,301.5247,0,U,43648,999,5253,0,-.6E-6,0
BEIDOU-3 G1 (C59),2018-085A,2026-07-08T19:35:28.326048,1.00273263,.00083351,2.9198,96.8073,354.9259,288.8351,0,U,43683,999,2827,0,-.96E-6,0
COSMOS 2529 (757),2018-086A,2026-07-08T07:08:48.640416,2.13102066,.00121283,64.2967,191.8814,256.3174,103.5798,0,U,43687,999,5973,0,.125E-5,0
BEIDOU-3 M17 (C36),2018-093A,2026-07-08T08:30:08.309376,1.86228274,.00101629,54.1700,181.5784,293.2680,135.4214,0,U,43706,999,5193,0,.121E-5,0
BEIDOU-3 M18 (C37),2018-093B,2026-07-08T02:46:01.069824,1.86226650,.00080554,54.1710,181.5786,321.5871,38.3641,0,U,43707,999,5192,0,.121E-5,0
GPS BIII-1  (PRN 04),2018-109A,2026-07-08T04:41:28.182048,2.00562547,.00385393,55.6938,91.3584,197.3803,335.3129,0,U,43873,999,5549,0,-.23E-6,0
BEIDOU-3 IGSO-1 (C38),2019-023A,2026-07-08T11:34:14.074176,1.00285216,.00255829,58.7247,37.4318,224.0549,317.4664,0,U,44204,999,742,0,-.209E-5,0
BEIDOU-2 G8 (C01),2019-027A,2026-07-08T19:31:06.244608,1.00274223,.00098644,1.7093,74.5155,284.2574,5.2624,0,U,44231,999,2629,0,-.234E-5,0
